STARLINK-30382          
1 57786U 23134R   26182.94108119  .00002420  00000+0  97410-4 0  9990
2 57786  43.0000 268.9531 0001230 268.3309  91.7402 15.27591893156985
STARLINK-30378          
1 57787U 23134S   26182.65011433  .00003937  00000+0  15238-3 0  9992
2 57787  43.0025 271.0589 0001558 251.7932 108.2750 15.27606515156935
STARLINK-30387          
1 57788U 23134T   26182.61548196  .00001633  00000+0  68832-4 0  9990
2 57788  43.0039 259.7015 0001494 268.6983  91.3697 15.27584476157068
STARLINK-30372          
1 57789U 23134U   26183.21499938  .00003029  00000+0  12251-3 0  9991
2 57789  43.0018 151.5879 0001097 297.8608  62.2132 15.26749951158387
STARLINK-30367          
1 57791U 23134W   26182.96293950  .00000201  00000+0  16850-4 0  9990
2 57791  43.0032 269.1152 0001354 276.0333  84.0364 15.27568291156986
TIANQI-21               
1 57792U 23135A   26183.22756777  .00000131  00000+0  12756-3 0  9995
2 57792  49.9719  89.0343 0013554 310.8996  49.0742 14.23127165146775
TIANQI-22               
1 57793U 23135B   26183.20905382  .00000448  00000+0  26636-3 0  9995
2 57793  49.9685  89.2956 0012987 315.3469  44.6396 14.23248404146769
TIANQI-23               
1 57794U 23135C   26183.17453188  .00000114  00000+0  12032-3 0  9999
2 57794  49.9729  89.4847 0013834 314.3639  45.6139 14.23049683146764
TIANQI-24               
1 57795U 23135D   26183.19185707  .00000290  00000+0  19712-3 0  9998
2 57795  49.9738  89.6494 0014086 314.7771  45.1995 14.23152352146769
YAOGAN-33 03            
1 57797U 23136A   26183.28453505  .00000503  00000+0  11747-3 0  9992
2 57797  98.1950 107.4000 0008628 132.8990 227.2935 14.58739251150132
XRISM                   
1 57800U 23137A   26182.90693761  .00005265  00000+0  28864-3 0  9994
2 57800  31.0018 264.2474 0007728 112.3288 247.8171 15.12591929155097
STARLINK-30374          
1 57809U 23138B   26183.06425239  .00003007  00000+0  11868-3 0  9993
2 57809  43.0041 307.9846 0000113 292.1184  67.9656 15.27595735156237
STARLINK-30394          
1 57810U 23138C   26183.07839958  .00015155  00000+0  55885-3 0  9997
2 57810  43.0033 308.0918 0001118 324.5325  35.5453 15.27594961156130
STARLINK-30379          
1 57811U 23138D   26182.82070210 -.00000291  00000+0 -10457-5 0  9993
2 57811  43.0045 309.5995 0002214 271.7067  88.3531 15.27595277156199
STARLINK-30395          
1 57812U 23138E   26182.75916876  .00003048  00000+0  12021-3 0  9991
2 57812  43.0026 309.9903 0001275 272.3411  87.7295 15.27590841156189
STARLINK-30403          
1 57813U 23138F   26182.76174441  .00001842  00000+0  76436-4 0  9998
2 57813  43.0021 310.0120 0001533 263.1362  96.9315 15.27585880156080
STARLINK-30413          
1 57814U 23138G   26183.05672850 -.00008638  00000+0 -30495-3 0  9995
2 57814  43.0047 308.7828 0001658 266.4498  93.6164 15.27554834156229
STARLINK-30398          
1 57815U 23138H   26183.03487715 -.00001475  00000+0 -44112-4 0  9992
2 57815  43.0027 308.6202 0001353 264.8427  95.2270 15.27565408156123
STARLINK-30386          
1 57816U 23138J   26183.03872224 -.00001228  00000+0 -35125-4 0  9996
2 57816  42.9998 308.6503 0001921 259.8747 100.1888 15.27563705156043
STARLINK-30391          
1 57817U 23138K   26183.04257489  .00021545  00000+0  79018-3 0  9998
2 57817  43.0012 308.6721 0000567   0.9625 359.1227 15.27579711156227
STARLINK-30401          
1 57818U 23138L   26183.04514412 -.00001377  00000+0 -40538-4 0  9990
2 57818  43.0042 308.6857 0001325 267.5538  92.5162 15.27568768156123
STARLINK-30390          
1 57819U 23138M   26183.04899018 -.00000710  00000+0 -16293-4 0  9990
2 57819  43.0018 308.7241 0001005 276.7489  83.3248 15.27584787156163
STARLINK-30409          
1 57820U 23138N   26183.07198745  .00001717  00000+0  71929-4 0  9997
2 57820  43.0045 308.0224 0001770 257.8195 102.2459 15.27570920156172
STARLINK-30415          
1 57821U 23138P   26183.06055761  .00004693  00000+0  17986-3 0  9995
2 57821  42.9957 308.8110 0000436  81.6364 278.4537 15.27595813156221
STARLINK-30407          
1 57823U 23138R   26182.76976819  .00000182  00000+0  16132-4 0  9991
2 57823  43.0010 204.5189 0000884 275.7911  84.2839 15.27574643157412
STARLINK-30408          
1 57824U 23138S   26183.06811310  .00002684  00000+0  10698-3 0  9999
2 57824  43.0023 308.0121 0001286 268.6080  91.4624 15.27591575156221
STARLINK-30377          
1 57825U 23138T   26183.06683138  .00002535  00000+0  10160-3 0  9994
2 57825  43.0046 307.9989 0001845 259.1176 100.9468 15.27588327156121
STARLINK-30422          
1 57826U 23138U   26182.76304762  .00000230  00000+0  17889-4 0  9990
2 57826  43.0045 310.0149 0001422 266.3434  93.7255 15.27571092156171
STARLINK-30402          
1 57827U 23138V   26182.75274197  .00003970  00000+0  15368-3 0  9991
2 57827  43.0043 309.9444 0001574 263.8758  96.1915 15.27586320156174
STARLINK-30411          
1 57828U 23138W   26182.81429009  .00008942  00000+0  33434-3 0  9991
2 57828  42.9982 309.5253 0000149 118.5548 241.5318 15.27550883156122
