OBJECT_NAME,OBJECT_ID,EPOCH,MEAN_MOTION,ECCENTRICITY,INCLINATION,RA_OF_ASC_NODE,ARG_OF_PERICENTER,MEAN_ANOMALY,EPHEMERIS_TYPE,CLASSIFICATION_TYPE,NORAD_CAT_ID,ELEMENT_SET_NO,REV_AT_EPOCH,BSTAR,MEAN_MOTION_DOT,MEAN_MOTION_DDOT
STARLINK-30382,2023-134R,2026-07-01T22:35:09.414816,15.27591893,.00012306,43.0000,268.9531,268.3309,91.7402,0,U,57786,999,15698,.9740974E-4,.242E-4,0
STARLINK-30378,2023-134S,2026-07-01T15:36:09.878112,15.27606515,.00015585,43.0025,271.0589,251.7932,108.2750,0,U,57787,999,15693,.15238168E-3,.3937E-4,0
STARLINK-30387,2023-134T,2026-07-01T14:46:17.641344,15.27584476,.00014942,43.0039,259.7015,268.6983,91.3697,0,U,57788,999,15706,.6883212E-4,.1633E-4,0
STARLINK-30372,2023-134U,2026-07-02T05:09:35.946432,15.26749951,.00010978,43.0018,151.5879,297.8608,62.2132,0,U,57789,999,15838,.12251204E-3,.3029E-4,0
STARLINK-30367,2023-134W,2026-07-01T23:06:37.972800,15.27568291,.00013548,43.0032,269.1152,276.0333,84.0364,0,U,57791,999,15698,.1685016E-4,.201E-5,0
TIANQI-21,2023-135A,2026-07-02T05:27:41.855328,14.23127165,.00135549,49.9719,89.0343,310.8996,49.0742,0,U,57792,999,14677,.12756311E-3,.131E-5,0
TIANQI-22,2023-135B,2026-07-02T05:01:02.250048,14.23248404,.00129871,49.9685,89.2956,315.3469,44.6396,0,U,57793,999,14676,.26636347E-3,.448E-5,0
TIANQI-23,2023-135C,2026-07-02T04:11:19.554432,14.23049683,.00138347,49.9729,89.4847,314.3639,45.6139,0,U,57794,999,14676,.1203238E-3,.114E-5,0
TIANQI-24,2023-135D,2026-07-02T04:36:16.450848,14.23152352,.00140862,49.9738,89.6494,314.7771,45.1995,0,U,57795,999,14676,.19712398E-3,.29E-5,0
YAOGAN-33 03,2023-136A,2026-07-02T06:49:43.828320,14.58739251,.00086289,98.1950,107.4000,132.8990,227.2935,0,U,57797,999,15013,.11747348E-3,.503E-5,0
XRISM,2023-137A,2026-07-01T21:45:59.409504,15.12591929,.00077288,31.0018,264.2474,112.3288,247.8171,0,U,57800,999,15509,.28864316E-3,.5265E-4,0
STARLINK-30374,2023-138B,2026-07-02T01:32:31.406496,15.27595735,.00001132,43.0041,307.9846,292.1184,67.9656,0,U,57809,999,15623,.11867833E-3,.3007E-4,0
STARLINK-30394,2023-138C,2026-07-02T01:52:53.723712,15.27594961,.00011185,43.0033,308.0918,324.5325,35.5453,0,U,57810,999,15613,.55885444E-3,.15155E-3,0
STARLINK-30379,2023-138D,2026-07-01T19:41:48.661440,15.27595277,.00022143,43.0045,309.5995,271.7067,88.3531,0,U,57811,999,15619,-.1045658E-5,-.291E-5,0
STARLINK-30395,2023-138E,2026-07-01T18:13:12.180864,15.27590841,.00012753,43.0026,309.9903,272.3411,87.7295,0,U,57812,999,15618,.12020864E-3,.3048E-4,0
STARLINK-30403,2023-138F,2026-07-01T18:16:54.717024,15.27585880,.00015333,43.0021,310.0120,263.1362,96.9315,0,U,57813,999,15608,.76435638E-4,.1842E-4,0
STARLINK-30413,2023-138G,2026-07-02T01:21:41.342400,15.27554834,.0001658,43.0047,308.7828,266.4498,93.6164,0,U,57814,999,15622,-.30494825E-3,-.8638E-4,0
STARLINK-30398,2023-138H,2026-07-02T00:50:13.385760,15.27565408,.00013535,43.0027,308.6202,264.8427,95.2270,0,U,57815,999,15612,-.44111842E-4,-.1475E-4,0
STARLINK-30386,2023-138J,2026-07-02T00:55:45.601536,15.27563705,.0001921,42.9998,308.6503,259.8747,100.1888,0,U,57816,999,15604,-.35124511E-4,-.1228E-4,0
STARLINK-30391,2023-138K,2026-07-02T01:01:18.470496,15.27579711,.00005679,43.0012,308.6721,0.9625,359.1227,0,U,57817,999,15622,.790181E-3,.21545E-3,0
STARLINK-30401,2023-138L,2026-07-02T01:05:00.451968,15.27568768,.00013258,43.0042,308.6857,267.5538,92.5162,0,U,57818,999,15612,-.40537587E-4,-.1377E-4,0
STARLINK-30390,2023-138M,2026-07-02T01:10:32.751552,15.27584787,.0001005,43.0018,308.7241,276.7489,83.3248,0,U,57819,999,15616,-.16292807E-4,-.71E-5,0
STARLINK-30409,2023-138N,2026-07-02T01:43:39.715680,15.27570920,.00017709,43.0045,308.0224,257.8195,102.2459,0,U,57820,999,15617,.71929481E-4,.1717E-4,0
STARLINK-30415,2023-138P,2026-07-02T01:27:12.177504,15.27595813,.00004366,42.9957,308.8110,81.6364,278.4537,0,U,57821,999,15622,.17985947E-3,.4693E-4,0
STARLINK-30407,2023-138R,2026-07-01T18:28:27.971616,15.27574643,.00008845,43.0010,204.5189,275.7911,84.2839,0,U,57823,999,15741,.16131758E-4,.182E-5,0
STARLINK-30408,2023-138S,2026-07-02T01:38:04.971840,15.27591575,.00012866,43.0023,308.0121,268.6080,91.4624,0,U,57824,999,15622,.10697555E-3,.2684E-4,0
STARLINK-30377,2023-138T,2026-07-02T01:36:14.231232,15.27588327,.0001845,43.0046,307.9989,259.1176,100.9468,0,U,57825,999,15612,.10160254E-3,.2535E-4,0
STARLINK-30422,2023-138U,2026-07-01T18:18:47.314368,15.27571092,.00014222,43.0045,310.0149,266.3434,93.7255,0,U,57826,999,15617,.17888919E-4,.23E-5,0
STARLINK-30402,2023-138V,2026-07-01T18:03:56.906208,15.27586320,.00015744,43.0043,309.9444,263.8758,96.1915,0,U,57827,999,15617,.15367889E-3,.397E-4,0
STARLINK-30411,2023-138W,2026-07-01T19:32:34.663776,15.27550883,.00001492,42.9982,309.5253,118.5548,241.5318,0,U,57828,999,15612,.33433621E-3,.8942E-4,0
